0 HAIYANG 2C
1 46469U 20066A   21056.73825081 -.00000057  00000-0  21729-4 0  9999
2 46469  65.9983 359.1074 0004856 253.2794 106.7740 13.83375400 21793
0 HAIYANG 2C
1 46469U 20066A   21056.88284023 -.00000059  00000-0  20170-4 0  9991
2 46469  65.9983 358.7473 0004865 253.3414 106.7122 13.83375395 21811
0 HAIYANG 2C
1 46469U 20066A   21057.09972430 -.00000057  00000-0  21913-4 0  9995
2 46469  65.9984 358.2074 0004842 253.3726 106.6803 13.83375404 21844
0 HAIYANG 2C
1 46469U 20066A   21057.53349255 -.00000053  00000-0  25827-4 0  9991
2 46469  65.9983 357.1272 0004840 253.9207 106.1327 13.83375476 21901
0 HAIYANG 2C
1 46469U 20066A   21057.67808197 -.00000050  00000-0  27958-4 0  9995
2 46469  65.9983 356.7675 0004828 253.8585 106.1953 13.83375513 21926
0 HAIYANG 2C
1 46469U 20066A   21057.89496605 -.00000059  00000-0  19857-4 0  9994
2 46469  65.9983 356.2271 0004820 254.0092 106.0438 13.83375427 21955
0 HAIYANG 2C
1 46469U 20066A   21058.03955560 -.00000058  00000-0  21481-4 0  9996
2 46469  65.9983 355.8673 0004815 253.9207 106.1329 13.83375439 21971
0 HAIYANG 2C
1 46469U 20066A   21058.40102919 -.00000055  00000-0  24231-4 0  9992
2 46469  65.9983 354.9671 0004802 254.2032 105.8511 13.83375500 22020
0 HAIYANG 2C
1 46469U 20066A   21058.54561849 -.00000053  00000-0  25290-4 0  9992
2 46469  65.9982 354.6073 0004792 254.2694 105.7845 13.83375517 22043
0 HAIYANG 2C
1 46469U 20066A   21058.76250259 -.00000051  00000-0  27650-4 0  9996
2 46469  65.9983 354.0673 0004803 254.3358 105.7187 13.83375573 22079
0 HAIYANG 2C
1 46469U 20066A   21058.90709185 -.00000057  00000-0  21882-4 0  9996
2 46469  65.9984 353.7073 0004785 254.4641 105.5889 13.83375507 22091
0 HAIYANG 2C
1 46469U 20066A   21059.05168143 -.00000055  00000-0  24138-4 0  9991
2 46469  65.9985 353.3475 0004789 254.4938 105.5600 13.83375528 22114
0 HAIYANG 2C
1 46469U 20066A   21059.41315501 -.00000057  00000-0  21925-4 0  9996
2 46469  65.9984 352.4474 0004791 254.6986 105.3556 13.83375528 22163
0 HAIYANG 2C
1 46469U 20066A   21059.55774433 -.00000056  00000-0  22666-4 0  9996
2 46469  65.9984 352.0875 0004792 254.6239 105.4301 13.83375546 22187
0 HAIYANG 2C
1 46469U 20066A   21059.77462838 -.00000056  00000-0  23306-4 0  9995
2 46469  65.9984 351.5477 0004781 254.7203 105.3338 13.83375578 22217
0 HAIYANG 2C
1 46469U 20066A   21059.91921774 -.00000062  00000-0  17343-4 0  9991
2 46469  65.9985 351.1877 0004793 254.6745 105.3787 13.83375503 22239
0 HAIYANG 2C
1 46469U 20066A   21060.06380727 -.00000056  00000-0  23301-4 0  9990
2 46469  65.9985 350.8279 0004780 254.7377 105.3165 13.83375576 22251
0 HAIYANG 2C
1 46469U 20066A   21060.42528074 -.00000056  00000-0  22646-4 0  9990
2 46469  65.9985 349.9279 0004792 254.8679 105.1863 13.83375589 22302
0 HAIYANG 2C
1 46469U 20066A   21060.56987005 -.00000055  00000-0  24043-4 0  9990
2 46469  65.9985 349.5681 0004795 254.8157 105.2383 13.83375618 22322
0 HAIYANG 2C
1 46469U 20066A   21060.78675407 -.00000055  00000-0  23952-4 0  9992
2 46469  65.9985 349.0281 0004784 254.9184 105.1357 13.83375643 22353
0 HAIYANG 2C
1 46469U 20066A   21060.93134342 -.00000066  00000-0  13907-4 0  9998
2 46469  65.9987 348.6679 0004763 255.1692 104.8834 13.83375522 22379
0 HAIYANG 2C
1 46469U 20066A   21061.50970129 -.00000056  00000-0  22995-4 0  9999
2 46469  65.9988 347.2282 0004756 255.1512 104.9039 13.83375665 22453
0 HAIYANG 2C
1 46469U 20066A   21062.37723736 -.00000065  00000-0  15192-4 0  9996
2 46469  65.9988 345.0684 0004702 255.6887 104.3632 13.83375568 22574
0 HAIYANG 2C
1 46469U 20066A   21062.52182728 -.00000064  00000-0  15785-4 0  9990
2 46469  65.9987 344.7085 0004702 255.6016 104.4532 13.83375581 22595
0 HAIYANG 2C
1 46469U 20066A   21062.66641665 -.00000065  00000-0  14608-4 0  9999
2 46469  65.9987 344.3487 0004691 255.5583 104.4964 13.83375575 22617
0 HAIYANG 2C
1 46469U 20066A   21062.88330075 -.00000069  00000-0  11424-4 0  9990
2 46469  65.9987 343.8088 0004688 255.5718 104.4827 13.83375547 22644
0 HAIYANG 2C
1 46469U 20066A   21063.02789020 -.00000062  00000-0  17725-4 0  9998
2 46469  65.9987 343.4488 0004688 255.8566 104.1984 13.83375619 22661
0 HAIYANG 2C
1 46469U 20066A   21063.38936361 -.00000060  00000-0  18954-4 0  9992
2 46469  65.9987 342.5488 0004664 255.9825 104.0730 13.83375676 22711
0 HAIYANG 2C
1 46469U 20066A   21063.53395288 -.00000057  00000-0  22318-4 0  9991
2 46469  65.9987 342.1889 0004674 256.0025 104.0529 13.83375729 22734
0 HAIYANG 2C
1 46469U 20066A   21063.75083683 -.00000060  00000-0  18973-4 0  9994
2 46469  65.9987 341.6490 0004664 256.0411 104.0138 13.83375717 22760
0 HAIYANG 2C
1 46469U 20066A   21063.89542622 -.00000065  00000-0  14441-4 0  9993
2 46469  65.9987 341.2890 0004654 256.1368 103.9174 13.83375659 22786
0 HAIYANG 2C
1 46469U 20066A   21064.11231045 -.00000052  00000-0  26349-4 0  9999
2 46469  65.9988 340.7492 0004647 256.3342 103.7216 13.83375810 22813
0 HAIYANG 2C
1 46469U 20066A   21064.47378356 -.00000048  00000-0  30355-4 0  9992
2 46469  65.9988 339.8492 0004638 256.4482 103.6070 13.83375899 22867
0 HAIYANG 2C
1 46469U 20066A   21064.76296226 -.00000048  00000-0  29939-4 0  9995
2 46469  65.9988 339.1292 0004635 256.4462 103.6090 13.83375917 22901
0 HAIYANG 2C
1 46469U 20066A   21064.90755160 -.00000052  00000-0  26398-4 0  9999
2 46469  65.9988 338.7694 0004632 256.4734 103.5808 13.83375858 22923
0 HAIYANG 2C
1 46469U 20066A   21065.05214117 -.00000047  00000-0  31503-4 0  9996
2 46469  65.9989 338.4093 0004625 256.7245 103.3308 13.83375917 22947
0 HAIYANG 2C
1 46469U 20066A   21065.41361440 -.00000042  00000-0  36072-4 0  9999
2 46469  65.9988 337.5093 0004621 256.7150 103.3406 13.83376019 22995
0 HAIYANG 2C
1 46469U 20066A   21065.55820368 -.00000038  00000-0  38928-4 0  9990
2 46469  65.9987 337.1493 0004621 257.0539 103.0016 13.83376068 23011
0 HAIYANG 2C
1 46469U 20066A   21065.77508763 -.00000039  00000-0  38779-4 0  9991
2 46469  65.9988 336.6095 0004619 257.0928 102.9624 13.83376094 23048
0 HAIYANG 2C
1 46469U 20066A   21065.91967696 -.00000042  00000-0  35328-4 0  9992
2 46469  65.9988 336.2494 0004613 257.4055 102.6487 13.83376042 23065
0 HAIYANG 2C
1 46469U 20066A   21066.06426650 -.00000038  00000-0  38923-4 0  9998
2 46469  65.9987 335.8894 0004607 257.5173 102.5381 13.83376086 23080
0 HAIYANG 2C
1 46469U 20066A   21066.42573984 -.00000040  00000-0  37095-4 0  9993
2 46469  65.9987 334.9894 0004595 257.9344 102.1209 13.83376106 23134
0 HAIYANG 2C
1 46469U 20066A   21066.57032918 -.00000039  00000-0  38194-4 0  9995
2 46469  65.9986 334.6294 0004591 257.9665 102.0890 13.83376135 23155
0 HAIYANG 2C
1 46469U 20066A   21066.71491848 -.00000039  00000-0  38114-4 0  9994
2 46469  65.9987 334.2694 0004596 258.1615 101.8939 13.83376160 23170
0 HAIYANG 2C
1 46469U 20066A   21066.85950777 -.00000045  00000-0  32985-4 0  9997
2 46469  65.9986 333.9095 0004598 258.1074 101.9472 13.83376094 23192
0 HAIYANG 2C
1 46469U 20066A   21067.07639190 -.00000037  00000-0  40118-4 0  9993
2 46469  65.9986 333.3695 0004579 258.5088 101.5464 13.83376176 23222
0 HAIYANG 2C
1 46469U 20066A   21067.36557058 -.00000037  00000-0  40403-4 0  9994
2 46469  65.9985 332.6495 0004575 258.8313 101.2241 13.83376211 23265
0 HAIYANG 2C
1 46469U 20066A   21067.43786524 -.00000039  00000-0  38760-4 0  9999
2 46469  65.9985 332.4694 0004570 259.0527 101.0023 13.83376192 23274
0 HAIYANG 2C
1 46469U 20066A   21067.72704395 -.00000044  00000-0  34125-4 0  9994
2 46469  65.9985 331.7494 0004562 259.0295 101.0256 13.83376159 23313
0 HAIYANG 2C
1 46469U 20066A   21067.94392803 -.00000048  00000-0  30172-4 0  9997
2 46469  65.9985 331.2095 0004555 258.8766 101.1781 13.83376101 23341
0 HAIYANG 2C
1 46469U 20066A   21068.08851755 -.00000041  00000-0  36543-4 0  9990
2 46469  65.9985 330.8494 0004546 259.1523 100.9037 13.83376183 23367
0 HAIYANG 2C
1 46469U 20066A   21068.37769610 -.00000041  00000-0  36778-4 0  9990
2 46469  65.9984 330.1294 0004552 259.1142 100.9415 13.83376214 23401
0 HAIYANG 2C
1 46469U 20066A   21068.59458006 -.00000039  00000-0  38052-4 0  9992
2 46469  65.9984 329.5895 0004548 259.3511 100.7045 13.83376246 23432
0 HAIYANG 2C
1 46469U 20066A   21068.73916938 -.00000043  00000-0  34412-4 0  9992
2 46469  65.9983 329.2295 0004547 259.2103 100.8450 13.83376207 23457
0 HAIYANG 2C
1 46469U 20066A   21068.88375877 -.00000047  00000-0  31093-4 0  9995
2 46469  65.9984 328.8697 0004551 259.3497 100.7049 13.83376157 23470
0 HAIYANG 2C
1 46469U 20066A   21069.10064295 -.00000046  00000-0  32233-4 0  9996
2 46469  65.9983 328.3295 0004526 259.7058 100.3495 13.83376172 23509
0 HAIYANG 2C
1 46469U 20066A   21069.38982161 -.00000047  00000-0  31171-4 0  9998
2 46469  65.9983 327.6096 0004538 259.7211 100.3346 13.83376195 23548
0 HAIYANG 2C
1 46469U 20066A   21069.53441093 -.00000046  00000-0  31641-4 0  9990
2 46469  65.9983 327.2498 0004540 259.8058 100.2499 13.83376213 23564
0 HAIYANG 2C
1 46469U 20066A   21069.75129490 -.00000049  00000-0  28896-4 0  9999
2 46469  65.9983 326.7099 0004541 259.8182 100.2373 13.83376200 23594
0 HAIYANG 2C
1 46469U 20066A   21069.89588425 -.00000054  00000-0  25000-4 0  9991
2 46469  65.9984 326.3498 0004524 260.2225  99.8319 13.83376140 23618
0 HAIYANG 2C
1 46469U 20066A   21070.11276850 -.00000052  00000-0  26232-4 0  9990
2 46469  65.9984 325.8098 0004507 260.6361  99.4193 13.83376164 23649
0 HAIYANG 2C
1 46469U 20066A   21070.40194716 -.00000053  00000-0  25960-4 0  9990
2 46469  65.9982 325.0898 0004499 260.7718  99.2840 13.83376184 23687
0 HAIYANG 2C
1 46469U 20066A   21070.54653652 -.00000051  00000-0  27909-4 0  9997
2 46469  65.9983 324.7300 0004508 261.0808  98.9753 13.83376229 23709
0 HAIYANG 2C
1 46469U 20066A   21070.76342043 -.00000061  00000-0  18029-4 0  9994
2 46469  65.9983 324.1899 0004486 261.1487  98.9063 13.83376126 23738
0 HAIYANG 2C
1 46469U 20066A   21070.90800998 -.00000065  00000-0  14813-4 0  9999
2 46469  65.9983 323.8298 0004476 261.4225  98.6325 13.83376064 23750
